CSS (TIANHE)            
1 48274U 21035A   25070.18912905  .00017478  00000+0  20312-3 0  9992
2 48274  41.4635 257.4107 0006963 322.4137  37.6214 15.61304257220834
ISS (NAUKA)             
1 49044U 21066A   25069.85900370  .00012030  00000+0  21929-3 0  9991
2 49044  51.6353  74.0496 0006400   7.1788 352.9291 15.49878056205952
FREGAT DEB              
1 49271U 11037PF  25067.67566116  .00008999  00000+0  19934-1 0  9994
2 49271  51.6599 301.3428 0908550 335.1230  20.8289 12.27890519167552
CSS (WENTIAN)           
1 53239U 22085A   25069.86930052  .00018418  00000+0  21390-3 0  9993
2 53239  41.4636 259.3590 0007021 320.7247  39.3082 15.61292560214948
CSS (MENGTIAN)          
1 54216U 22143A   25069.86930052  .00018418  00000+0  21390-3 0  9994
2 54216  41.4636 259.3590 0007021 320.7247  39.3082 15.61292560133876
CYGNUS NG-21            
1 60378U 24139A   25069.85900370  .00012030  00000+0  21929-3 0  9998
2 60378  51.6353  74.0496 0006400   7.1788 352.9291 15.49878056 33864
SOYUZ-MS 26             
1 61043U 24162A   25069.85900370  .00012030  00000+0  21929-3 0  9994
2 61043  51.6353  74.0496 0006400   7.1788 352.9291 15.49878056499859
CREW DRAGON 9           
1 61447U 24178A   25069.85900370  .00012030  00000+0  21929-3 0  9999
2 61447  51.6353  74.0496 0006400   7.1788 352.9291 15.49878056 25256
SHENZHOU-19 (SZ-19)     
1 61683U 24194A   25069.86930052  .00018418  00000+0  21390-3 0  9998
2 61683  41.4636 259.3590 0007021 320.7247  39.3082 15.61292560220419
TIANZHOU-8              
1 61983U 24211A   25069.86930052  .00018418  00000+0  21390-3 0  9991
2 61983  41.4636 259.3590 0007021 320.7247  39.3082 15.61292560 16291
PROGRESS-MS 29          
1 62030U 24215A   25069.85900370  .00012030  00000+0  21929-3 0  9990
2 62030  51.6353  74.0496 0006400   7.1788 352.9291 15.49878056 14107
2024-013E               
1 62056U 24013E   25069.83148963  .00818921  76107-5  63649-3 0  9999
2 62056  41.4650 239.8091 0037524 278.3487  81.3117 16.12146143 18798
1998-067XC              
1 62296U 98067XC  25070.15581208  .00310267  00000+0  15458-2 0  9992
2 62296  51.6254  63.9992 0007065  17.7325 342.3922 15.80438428 14352
YOMOGI                  
1 62298U 98067XE  25069.69871393  .00321554  00000+0  15488-2 0  9992
2 62298  51.6236  66.1901 0007483  18.0123 342.1143 15.81139981 14281
ISS DEB                 
1 62376U 98067XG  25069.72113408  .00257416  00000+0  15722-2 0  9995
2 62376  51.6296  67.8764 0006907  23.7445 336.3872 15.76043159 12657
PROGRESS-MS 30          
1 63129U 25041B   25069.85900370  .00012030  00000+0  21929-3 0  9998
2 63129  51.6353  74.0496 0006400   7.1788 352.9291 15.49878056  1620
